OBJECT_NAME,OBJECT_ID,EPOCH,MEAN_MOTION,ECCENTRICITY,INCLINATION,RA_OF_ASC_NODE,ARG_OF_PERICENTER,MEAN_ANOMALY,EPHEMERIS_TYPE,CLASSIFICATION_TYPE,NORAD_CAT_ID,ELEMENT_SET_NO,REV_AT_EPOCH,BSTAR,MEAN_MOTION_DOT,MEAN_MOTION_DDOT
NORBI,2020-068J,2026-07-15T21:39:51.686784,15.49641096,.00083631,97.8611,215.4245,141.5851,218.5996,0,U,46494,999,32065,.26496022E-3,.14585E-3,0
SALSAT,2020-068K,2026-07-15T22:07:44.579136,15.30178067,.0009261,97.8855,201.7454,190.1996,169.9057,0,U,46495,999,31975,.13963713E-3,.3996E-4,0
ICEYE-X6,2020-068M,2026-07-15T23:42:07.116768,15.04669451,.00071622,98.0991,192.0400,8.3097,351.8246,0,U,46497,999,31756,.10677048E-3,.1434E-4,0
NETSAT-4,2020-068U,2026-07-15T23:00:01.837440,15.44772905,.00048472,97.8601,207.5313,190.7378,169.3766,0,U,46504,999,32021,.22858579E-3,.10601E-3,0
NETSAT-3,2020-068V,2026-07-15T23:40:17.218560,15.43625105,.00039282,97.8652,205.7431,207.3174,152.7867,0,U,46505,999,32012,.23933825E-3,.10678E-3,0
NETSAT-1,2020-068W,2026-07-15T22:46:59.457792,15.35255548,.00025024,97.8751,199.6882,257.3559,102.7403,0,U,46506,999,31971,.20128759E-3,.6801E-4,0
NETSAT-2,2020-068X,2026-07-15T22:56:42.854784,15.47184840,.00022407,97.8611,207.5344,204.9560,155.1580,0,U,46507,999,32018,.28052919E-3,.1416E-3,0
TIANQI-6,2020-076D,2026-07-15T18:03:42.944832,15.07354376,.0009624,34.9979,233.1260,60.0968,300.0697,0,U,46810,999,31289,.10024087E-3,.1517E-4,0
KSM1-C,2020-081B,2026-07-15T14:29:16.179936,15.27179937,.0001298,36.8944,243.4509,109.1413,250.9477,0,U,46906,999,31351,.15604E-3,.4158E-4,0
KSM1-D,2020-081C,2026-07-15T13:52:33.788640,15.25102573,.0002817,36.8960,253.1730,147.9010,212.1911,0,U,46907,999,31343,.14632E-3,.3651E-4,0
KSM1-A,2020-081H,2026-07-15T13:21:00.400896,15.26375362,.0003304,36.8953,246.3550,205.5607,154.4979,0,U,46912,999,31351,.15136E-3,.3932E-4,0
R2,2020-081J,2026-07-15T07:49:28.280928,15.25820824,.00078496,36.8967,247.9052,169.0997,190.9924,0,U,46913,999,31628,.14790963E-3,.3777E-4,0
KSM1-B,2020-081K,2026-07-15T14:03:17.568000,15.24886271,.0004826,36.9009,253.8012,167.9170,192.1695,0,U,46914,999,31652,.14887E-3,.3692E-4,0
GONETS-M 20,2020-091A,2026-07-15T21:42:17.927424,12.42894350,.00221614,82.5056,284.5862,117.4480,242.8857,0,U,47227,999,25464,.24890889E-3,.45E-6,0
GONETS-M 21,2020-091B,2026-07-15T23:00:47.172384,12.42887388,.00159042,82.4980,283.2417,130.3315,229.9157,0,U,47228,999,25464,.21550647E-3,.4E-6,0
GONETS-M 22,2020-091C,2026-07-15T22:21:51.812352,12.42893038,.00230317,82.5038,284.1706,112.9171,247.4342,0,U,47229,999,25459,-.86296122E-3,-.11E-5,0
CUBEL,2021-006AM,2026-07-15T03:16:57.051552,15.41999109,.00078706,97.2316,246.4702,82.4658,277.7483,0,U,47448,999,30406,.15774E-3,.6644E-4,0
ARKTIKA-M 1,2021-016A,2026-07-14T09:46:38.558208,2.00611590,.7297332,63.2662,53.6722,270.0591,14.4994,0,U,47719,999,3933,0,-.301E-5,0
STARLINK-2342,2021-021Z,2026-07-16T00:00:02.000160,15.93397978,.00091937,53.1505,2.4124,295.0195,288.9079,0,U,47883,999,601,.71140854E-3,.257864E-2,.36493169E-4
GRUS-1B,2021-022C,2026-07-15T22:50:22.049376,14.98776618,.00144598,97.5341,79.1902,214.6019,145.4264,0,U,47934,999,29020,.7746293E-4,.878E-5,0
UNISAT-7,2021-022P,2026-07-15T05:08:28.096512,15.41197829,.0007824,97.3863,101.4417,348.0399,12.0660,0,U,47945,999,29417,.20076515E-3,.8254E-4,0
GLOBAL-9,2021-023G,2026-07-15T22:06:20.963808,15.47629155,.00035041,44.9815,88.8931,174.3066,185.7865,0,U,47971,999,29939,.23140086E-3,.11862E-3,0
AII-BRAVO,2021-034C,2026-07-15T02:31:41.081376,15.03668473,.00062806,97.5597,250.3798,161.9417,198.2033,0,U,48270,999,28381,.21718656E-3,.2915E-4,0
TYVAK-182A,2021-034D,2026-07-15T03:56:44.399328,15.06405855,.00048381,97.5715,254.5981,220.4475,139.6394,0,U,48271,999,28404,.17238127E-3,.2479E-4,0
CSS (TIANHE),2021-035A,2026-07-15T12:51:01.431072,15.58093729,.0002229,41.4690,149.7716,300.3824,59.6794,0,U,48274,999,29759,.20014E-4,.1219E-4,0
TYVAK-0130,2021-041BF,2026-07-15T10:28:54.687648,15.27939674,.00085072,52.9942,254.8555,259.6068,100.3971,0,U,48606,999,28470,.16349959E-3,.417E-4,0
HAIYANG-2D,2021-043A,2026-07-15T20:22:29.463168,13.83373868,.00115958,65.9969,233.3426,265.7646,94.2097,0,U,48621,999,26051,.72275125E-4,-.2E-7,0
2021-050D,2021-050D,2026-07-15T23:20:55.830624,15.23595347,.00063598,97.3331,272.3561,149.2458,210.9154,0,U,48843,999,28334,.50849432E-4,.1148E-4,0
